1 01588U 65073E   23312.74873715 -.00000098  00000-0 -57685-4 0  9990
2 01588  56.0566 247.5326 0154773 271.9392 158.5484 12.34575254621496
1 01588U 65073E   23313.25283756 -.00000097  00000-0 -49621-4 0  9997
2 01588  56.0565 246.2105 0154763 272.6088 238.9983 12.34575259621554
1 01588U 65073E   23313.96370825 -.00000096  00000-0 -42445-4 0  9995
2 01588  56.0565 244.3462 0154758 273.5545 158.4273 12.34575277621649
1  1588U 65073E   23314.11256968 -.00000094  00000-0 -23069-4 0  9993
2  1588  56.0565 243.9558 0154752 273.7527 100.0343 12.34575285622322
1 01588U 65073E   23314.55371494 -.00000095  00000-0 -33940-4 0  9993
2 01588  56.0565 242.7988 0154754 274.3392 260.6825 12.34575281621711
1 01588U 65073E   23314.93525788 -.00000097  00000-0 -46662-4 0  9999
2 01588  56.0566 241.7982 0154750 274.8457 156.4319 12.34575275621766
1 01588U 65073E   23315.52512744 -.00000095  00000-0 -37228-4 0  9999
2 01588  56.0566 240.2512 0154746 275.6306 258.0769 12.34575261621837
1 01588U 65073E   23315.90639862 -.00000096  00000-0 -38377-4 0  9999
2 01588  56.0566 239.2513 0154743 276.1366 152.6186 12.34575257621887
1  1588U 65073E   23316.15989556 -.00000092  00000-0 -12971-4 0  9993
2  1588  56.0566 238.5864 0154741 276.4733 199.2734 12.34575253622576
1 01588U 65073E   23316.49714926 -.00000093  00000-0 -15268-4 0  9990
2 01588  56.0566 237.7020 0154747 276.9210 258.1813 12.34575242621954
1 01588U 65073E   23316.71688833 -.00000087  00000-0  25441-4 0  9998
2 01588  56.0566 237.1256 0154747 277.2130 154.8007 12.34575251621984
1 01588U 65073E   23317.54944824 -.00000080  00000-0  82747-4 0  9990
2 01588  56.0565 234.9421 0154743 278.3195 255.0719 12.34575245622080
1  1588U 65073E   23318.19236866 -.00000075  00000-0  11763-3 0  9995
2  1588  56.0566 233.2559 0154738 279.1723 232.5014 12.34575234622823
1 01588U 65073E   23318.52159645 -.00000074  00000-0  12597-3 0  9996
2 01588  56.0565 232.3925 0154741 279.6106 255.7373 12.34575238622204
1 01588U 65073E   23319.24922965 -.00000069  00000-0  16277-3 0  9992
2 01588  56.0565 230.4842 0154737 280.5780 249.6668 12.34575261622299
1 01588U 65073E   23319.79972552 -.00000068  00000-0  17460-3 0  9993
2 01588  56.0565 229.0404 0154738 281.3088 176.3199 12.34575312622368
1 01588U 65073E   23320.22074105 -.00000065  00000-0  19613-3 0  9999
2 01588  56.0565 227.9363 0154743 281.8680 247.5034 12.34575350622415
1  1588U 65073E   23320.22074105 -.00000065  00000-0  19613-3 0  9999
2  1588  56.0565 227.9363 0154743 281.8680 247.5034 12.34575350623078
1 01588U 65073E   23320.75650234 -.00000068  00000-0  17364-3 0  9994
2 01588  56.0564 226.5312 0154746 282.5787 108.6698 12.34575365622488
1 01588U 65073E   23321.51717602 -.00000073  00000-0  13467-3 0  9998
2 01588  56.0564 224.5363 0154756 283.5890 249.4474 12.34575356622575
1 01588U 65073E   23322.48886420 -.00000079  00000-0  89324-4 0  9992
2 01588  56.0564 221.9879 0154767 284.8780 248.0707 12.34575367622691
1  1588U 65073E   23322.48886420 -.00000079  00000-0  89324-4 0  9992
2  1588  56.0564 221.9879 0154767 284.8780 248.0707 12.34575367623355
1 01588U 65073E   23323.46098727 -.00000091  00000-0 -58492-6 0  9995
2 01588  56.0562 219.4386 0154771 286.1728 248.6215 12.34575356622818
1 01588U 65073E   23323.93019528 -.00000096  00000-0 -45000-4 0  9993
2 01588  56.0561 218.2081 0154767 286.7953 173.9948 12.34575341622870
1 01588U 65073E   23324.18718738 -.00000097  00000-0 -46836-4 0  9999
2 01588  56.0559 217.5341 0154763 287.1387 236.1820 12.34575347622901
1  1588U 65073E   23324.81399035 -.00000105  00000-0 -11008-3 0  9996
2  1588  56.0558 215.8902 0154761 287.9706 141.9784 12.34575321623641
1 01588U 65073E   23324.90030486 -.00000105  00000-0 -11091-3 0  9990
2 01588  56.0558 215.6638 0154763 288.0851 165.5993 12.34575318622997
1 01588U 65073E   23325.48519473 -.00000103  00000-0 -94704-4 0  9993
2 01588  56.0556 214.1299 0154751 288.8653 245.1111 12.34575332623069
1 01588U 65073E   23325.86720553 -.00000100  00000-0 -68904-4 0  9998
2 01588  56.0555 213.1280 0154754 289.3712 142.9415 12.34575355623114
1 01588U 65073E   23326.12778521 -.00000097  00000-0 -48756-4 0  9994
2 01588  56.0555 212.4446 0154755 289.7180 221.0746 12.34575352623140
1 01588U 65073E   23326.83862150 -.00000091  00000-0 -32551-5 0  9995
2 01588  56.0553 210.5803 0154760 290.6618 140.3529 12.34575372623231
1  1588U 65073E   23326.83862150 -.00000091  00000-0 -32551-5 0  9995
2  1588  56.0553 210.5803 0154760 290.6618 140.3529 12.34575372623893
1 01588U 65073E   23327.09966205 -.00000077  00000-0  10485-3 0  9993
2 01588  56.0551 209.8958 0154761 291.0086 220.5353 12.34575452623264
1 01588U 65073E   23327.89787924 -.00000072  00000-0  14640-3 0  9992
2 01588  56.0551 207.8023 0154760 292.0695 168.1726 12.34575468623360
1 01588U 65073E   23328.15646358 -.00000070  00000-0  16183-3 0  9999
2 01588  56.0551 207.1241 0154767 292.4133 237.4379 12.34575465623397
1 01588U 65073E   23328.94817314 -.00000061  00000-0  23066-3 0  9996
2 01588  56.0550 205.0477 0154771 293.4641 156.1542 12.34575514623499
1 01588U 65073E   23329.12812466 -.00000060  00000-0  23804-3 0  9999
2 01588  56.0551 204.5758 0154772 293.7040 235.9392 12.34575514623515
1  1588U 65073E   23329.12812466 -.00000060  00000-0  23804-3 0  9999
2  1588  56.0551 204.5758 0154772 293.7040 235.9392 12.34575514624178
1 01588U 65073E   23329.92440084 -.00000052  00000-0  30138-3 0  9999
2 01588  56.0550 202.4873 0154790 294.7575 174.9549 12.34575544623613
1 01588U 65073E   23330.56290314 -.00000063  00000-0  20980-3 0  9996
2 01588  56.0550 200.8126 0154827 295.5985 132.7550 12.34575465623695
1 01588U 65073E   23330.89561352 -.00000061  00000-0  22559-3 0  9997
2 01588  56.0551 199.9399 0154830 296.0387 171.4724 12.34575490623738
1 01588U 65073E   23331.15471529 -.00000060  00000-0  23823-3 0  9997
2 01588  56.0550 199.2604 0154836 296.3831 243.0376 12.34575500623766
1  1588U 65073E   23331.15471529 -.00000060  00000-0  23823-3 0  9997
2  1588  56.0550 199.2604 0154836 296.3831 243.0376 12.34575500624420
1 01588U 65073E   23331.86573993 -.00000058  00000-0  24982-3 0  9997
2 01588  56.0550 197.3956 0154849 297.3254 163.1554 12.34575551623855
1 01588U 65073E   23332.57460660 -.00000059  00000-0  24459-3 0  9992
2 01588  56.0550 195.5365 0154859 298.2650  73.6821 12.34575600623947
1 01588U 65073E   23332.83744291 -.00000059  00000-0  24168-3 0  9993
2 01588  56.0550 194.8473 0154872 298.6139 161.8465 12.34575657623979
1  1588U 65073E   23334.06759139 -.00000070  00000-0  16055-3 0  9996
2  1588  56.0549 191.6211 0154894 300.2525 229.1796 12.34575709624788
1 01588U 65073E   23335.91384177 -.00000071  00000-0  14913-3 0  9999
2 01588  56.0546 186.7790 0154929 302.6942 154.7644 12.34575743624356
1 01588U 65073E   23336.54291132 -.00000073  00000-0  13863-3 0  9992
2 01588  56.0543 185.1293 0154916 303.5355  70.6301 12.34575832624432
1  1588U 65073E   23336.80590100 -.00000098  00000-0 -56172-4 0  9997
2  1588  56.0542 184.4395 0154920 303.8799 159.4802 12.34575708625127
1 01588U 65073E   23336.88457986 -.00000090  00000-0  23874-5 0  9994
2 01588  56.0542 184.2331 0154908 303.9847 149.1648 12.34575755624479
1 01588U 65073E   23337.59931244 -.00000093  00000-0 -19387-4 0  9994
2 01588  56.0540 182.3585 0154914 304.9300  85.7650 12.34575767624560
1 01588U 65073E   23338.56748692 -.00000083  00000-0  57067-4 0  9990
2 01588  56.0539 179.8191 0154955 306.2138  68.7742 12.34575817624683
1 01588U 65073E   23338.75408442 -.00000085  00000-0  43082-4 0  9991
2 01588  56.0538 179.3296 0154963 306.4606 178.0991 12.34575800624700
1  1588U 65073E   23339.00279609 -.00000082  00000-0  66534-4 0  9995
2  1588  56.0537 178.6773 0154973 306.7924 203.4851 12.34575799625399
1 01588U 65073E   23339.47000543 -.00000078  00000-0  97911-4 0  9993
2 01588  56.0537 177.4519 0154987 307.4097 119.9786 12.34575804624796
1 01588U 65073E   23340.94630135 -.00000068  00000-0  17482-3 0  9996
2 01588  56.0535 173.5798 0155020 309.3639 201.3145 12.34575832624978
1 01588U 65073E   23341.48170745 -.00000065  00000-0  20077-3 0  9993
2 01588  56.0535 172.1755 0155037 310.0719  60.9057 12.34575868625041
1  1588U 65073E   23341.48170745 -.00000065  00000-0  20077-3 0  9993
2  1588  56.0535 172.1755 0155037 310.0719  60.9057 12.34575868625704
1 01588U 65073E   23342.47061490 -.00000063  00000-0  21314-3 0  9992
2 01588  56.0535 169.5817 0155060 311.3816 136.0634 12.34575904625168
1 01588U 65073E   23342.97473685 -.00000065  00000-0  19729-3 0  9999
2 01588  56.0536 168.2595 0155093 312.0517 216.6093 12.34575875625228
1 01588U 65073E   23343.43834098 -.00000064  00000-0  20631-3 0  9993
2 01588  56.0537 167.0436 0155109 312.6641 117.0801 12.34575898625284
1 01588U 65073E   23343.94650042 -.00000066  00000-0  19244-3 0  9994
2 01588  56.0537 165.7108 0155135 313.3394 215.5710 12.34575901625342
1  1588U 65073E   23343.94650042 -.00000066  00000-0  19244-3 0  9994
2  1588  56.0537 165.7108 0155135 313.3394 215.5710 12.34575901626006
1 01588U 65073E   23344.47883535 -.00000069  00000-0  16992-3 0  9998
2 01588  56.0537 164.3145 0155150 314.0422  61.5138 12.34575907625412
1 01588U 65073E   23344.82085299 -.00000072  00000-0  14410-3 0  9995
2 01588  56.0536 163.4173 0155147 314.4924 141.5998 12.34575896625453
1 01588U 65073E   23345.62461101 -.00000083  00000-0  60243-4 0  9992
2 01588  56.0536 161.3092 0155172 315.5549 113.8712 12.34575914625551
1 01588U 65073E   23345.71146611 -.00000083  00000-0  60946-4 0  9998
2 01588  56.0536 161.0813 0155170 315.6680 139.8971 12.34575912625568
1 01588U 65073E   23346.59639340 -.00000096  00000-0 -40121-4 0  9999
2 01588  56.0537 158.7603 0155199 316.8395 112.9205 12.34575916625674
1 01588U 65073E   23346.84941973 -.00000098  00000-0 -53263-4 0  9998
2 01588  56.0537 158.0967 0155202 317.1728 157.4874 12.34575909625701
1  1588U 65073E   23346.84941973 -.00000098  00000-0 -53263-4 0  9998
2  1588  56.0537 158.0967 0155202 317.1728 157.4874 12.34575909626364
